[{"OBJECT_NAME":"JACK E","OBJECT_ID":"2025-274E","EPOCH":"2026-03-09T18:40:25.511520","MEAN_MOTION":14.9265137,"ECCENTRICITY":0.0012643,"INCLINATION":97.7437,"RA_OF_ASC_NODE":359.4956,"ARG_OF_PERICENTER":334.1516,"MEAN_ANOMALY":25.907,"EPHEMERIS_TYPE":0,"CLASSIFICATION_TYPE":"U","NORAD_CAT_ID":66654,"ELEMENT_SET_NO":999,"REV_AT_EPOCH":1538,"BSTAR":0.00027190729,"MEAN_MOTION_DOT":2.749e-5,"MEAN_MOTION_DDOT":0},{"OBJECT_NAME":"FENGYUN 1C DEB","OBJECT_ID":"1999-025MR","EPOCH":"2026-03-09T19:11:05.176608","MEAN_MOTION":14.81279619,"ECCENTRICITY":0.00451485,"INCLINATION":98.8992,"RA_OF_ASC_NODE":95.1328,"ARG_OF_PERICENTER":125.1084,"MEAN_ANOMALY":290.0057,"EPHEMERIS_TYPE":0,"CLASSIFICATION_TYPE":"U","NORAD_CAT_ID":30016,"ELEMENT_SET_NO":999,"REV_AT_EPOCH":742,"BSTAR":0.0017113544,"MEAN_MOTION_DOT":0.0001354,"MEAN_MOTION_DDOT":0}]
